OBJECT_NAME,OBJECT_ID,EPOCH,MEAN_MOTION,ECCENTRICITY,INCLINATION,RA_OF_ASC_NODE,ARG_OF_PERICENTER,MEAN_ANOMALY,EPHEMERIS_TYPE,CLASSIFICATION_TYPE,NORAD_CAT_ID,ELEMENT_SET_NO,REV_AT_EPOCH,BSTAR,MEAN_MOTION_DOT,MEAN_MOTION_DDOT
STARLINK-37247,2026-154S,2026-07-14T22:00:03.000096,15.87084114,.00010244,53.1588,294.2439,76.5878,189.5797,0,U,69835,999,272,-.74086757E-2,-.17081E-1,0
STARLINK-37569,2026-154T,2026-07-14T22:00:03.000096,15.87228951,.00010112,53.1587,294.2370,73.7965,195.7490,0,U,69836,999,262,-.733775E-2,-.1704571E-1,0
STARLINK-37587,2026-154U,2026-07-14T22:00:03.000096,15.87311185,.00008537,53.1586,294.2289,65.2039,208.2078,0,U,69837,999,259,-.73005899E-2,-.1703003E-1,0
STARLINK-37590,2026-154V,2026-07-14T22:00:03.000096,15.87431444,.00011661,53.1587,294.2217,83.5617,193.3640,0,U,69838,999,246,-.72307381E-2,-.1698011E-1,0
STARLINK-37589,2026-154W,2026-07-14T22:00:03.000096,15.87545896,.00007605,53.1585,294.2142,64.3241,216.2406,0,U,69839,999,259,-.72179254E-2,-.1703462E-1,0
STARLINK-37487,2026-154X,2026-07-14T22:00:03.000096,15.95177460,.00009056,53.1575,293.9169,63.2772,359.6080,0,U,69840,999,259,-.39517557E-2,-.1581418E-1,.72760603E-3
STARLINK-37433,2026-154Y,2026-07-14T22:00:03.000096,15.95142113,.00010373,53.1575,293.9041,52.4761,16.5735,0,U,69841,999,272,-.33371792E-2,-.1335853E-1,.53421238E-3
STARLINK-37588,2026-154Z,2026-07-14T22:00:03.000096,15.95308059,.00009611,53.1574,293.8903,62.7055,12.9097,0,U,69842,999,262,-.42386901E-2,-.1706475E-1,.83811733E-3
STARLINK-37579,2026-154AA,2026-07-14T22:00:03.000096,15.95336116,.00009509,53.1575,293.8718,66.4942,17.9004,0,U,69843,999,262,-.47019351E-2,-.1893166E-1,.10162657E-2
STARLINK-37584,2026-154AB,2026-07-14T22:00:03.000096,15.95355744,.0001028,53.1577,293.8604,47.8430,41.9630,0,U,69844,999,262,-.47489096E-2,-.1913844E-1,.10372745E-2
STARLINK-37606,2026-154AC,2026-07-14T22:00:03.000096,15.95350183,.00010713,53.1574,293.8468,51.9957,44.2867,0,U,69845,999,262,-.48300599E-2,-.1945549E-1,.10695284E-2
STARLINK-37603,2026-154AD,2026-07-14T22:00:03.000096,15.95309997,.00010762,53.1576,293.8306,53.4789,50.5190,0,U,69846,999,262,-.49453374E-2,-.1987118E-1,.11122208E-2
STARLINK-37595,2026-154AE,2026-07-14T22:00:03.000096,15.95329295,.00010524,53.1574,293.8189,48.7203,60.6599,0,U,69847,999,262,-.49924947E-2,-.2007881E-1,.11343467E-2
QIANFAN-219,2026-155A,2026-07-14T22:38:23.434656,14.26454153,.00304863,89.0066,60.9753,224.1138,135.7624,0,U,69848,999,134,.51339107E-4,.139E-5,0
QIANFAN-220,2026-155B,2026-07-14T14:17:36.536064,14.18092924,.00356278,89.0051,61.0153,220.3335,139.5211,0,U,69849,999,129,-.10642892E+1,-.2031065E-1,0
QIANFAN-221,2026-155C,2026-07-14T22:37:40.414368,14.26646370,.00302558,89.0066,60.9752,224.6083,135.2676,0,U,69850,999,134,.24103176E-4,.73E-6,0
QIANFAN-222,2026-155D,2026-07-14T14:16:17.515488,14.18787335,.00346087,89.0061,61.0163,225.6727,134.1625,0,U,69851,999,129,-.10142804E+1,-.1965196E-1,0
QIANFAN-223,2026-155E,2026-07-14T14:14:01.927104,14.20529596,.00301938,89.0049,61.0154,225.2731,134.6001,0,U,69852,999,129,-.10274718E+1,-.2047514E-1,0
QIANFAN-224,2026-155F,2026-07-14T12:32:03.451488,14.19680058,.00341819,89.0054,61.0235,229.2006,130.6218,0,U,69853,999,128,-.94633388E+0,-.1870987E-1,0
QIANFAN-225,2026-155G,2026-07-14T15:51:54.180864,14.22457897,.00267219,89.0060,61.0064,229.1561,130.7315,0,U,69854,999,130,-.93627067E+0,-.1940958E-1,0
QIANFAN-226,2026-155H,2026-07-14T15:51:13.032864,14.22636125,.00271576,89.0063,61.0075,227.2474,132.6432,0,U,69855,999,130,-.90615029E+0,-.1888899E-1,0
QIANFAN-227,2026-155J,2026-07-14T15:50:29.482080,14.21733202,.00292829,89.0049,61.0060,227.9973,131.8725,0,U,69856,999,130,-.81607637E+0,-.1668555E-1,0
QIANFAN-228,2026-155K,2026-07-14T17:34:08.739840,14.26683603,.00303467,89.0070,60.9992,225.1859,134.6868,0,U,69857,999,131,.23551472E-4,.72E-6,0
QIANFAN-229,2026-155L,2026-07-14T14:12:04.962240,14.26734062,.0030269,89.0067,61.0152,225.7567,134.1142,0,U,69858,999,129,.99869E-4,.257E-5,0
QIANFAN-230,2026-155M,2026-07-14T15:58:30.173664,14.18156605,.00343939,89.0057,61.0078,220.0661,139.7991,0,U,69859,999,130,-.99923501E+0,-.1916728E-1,0
QIANFAN-231,2026-155N,2026-07-14T22:40:21.333504,14.26095513,.00304766,89.0068,60.9757,223.5126,136.3663,0,U,69860,999,134,.8473394E-4,.218E-5,0
QIANFAN-232,2026-155P,2026-07-14T22:37:01.422048,14.26735259,.00302741,89.0065,60.9751,224.8810,134.9935,0,U,69861,999,134,.85000702E-4,.221E-5,0
QIANFAN-233,2026-155Q,2026-07-14T19:14:54.433824,14.26751064,.00302262,89.0066,60.9911,225.1740,134.6997,0,U,69862,999,132,.77192996E-4,.202E-5,0
QIANFAN-234,2026-155R,2026-07-14T22:36:49.952448,14.26757734,.00302102,89.0068,60.9753,224.6783,135.1977,0,U,69863,999,134,.77432771E-4,.203E-5,0
QIANFAN-235,2026-155S,2026-07-14T20:55:47.093376,14.26763440,.00301556,89.0067,60.9833,224.9343,134.9410,0,U,69864,999,133,.23749135E-4,.72E-6,0
