STARLINK-37247          
1 69835U 26154S   26195.91670139 -.01708100  00000+0 -74087-2 0  9994
2 69835  53.1588 294.2439 0001024  76.5878 189.5797 15.87084114  2720
STARLINK-37569          
1 69836U 26154T   26195.91670139 -.01704571  00000+0 -73377-2 0  9994
2 69836  53.1587 294.2370 0001011  73.7965 195.7490 15.87228951  2623
STARLINK-37587          
1 69837U 26154U   26195.91670139 -.01703003  00000+0 -73006-2 0  9993
2 69837  53.1586 294.2289 0000853  65.2039 208.2078 15.87311185  2593
STARLINK-37590          
1 69838U 26154V   26195.91670139 -.01698011  00000+0 -72307-2 0  9999
2 69838  53.1587 294.2217 0001166  83.5617 193.3640 15.87431444  2465
STARLINK-37589          
1 69839U 26154W   26195.91670139 -.01703462  00000+0 -72179-2 0  9994
2 69839  53.1585 294.2142 0000760  64.3241 216.2406 15.87545896  2596
STARLINK-37487          
1 69840U 26154X   26195.91670139 -.01581418  72761-3 -39518-2 0  9998
2 69840  53.1575 293.9169 0000905  63.2772 359.6080 15.95177460  2597
STARLINK-37433          
1 69841U 26154Y   26195.91670139 -.01335853  53421-3 -33372-2 0  9993
2 69841  53.1575 293.9041 0001037  52.4761  16.5735 15.95142113  2720
STARLINK-37588          
1 69842U 26154Z   26195.91670139 -.01706475  83812-3 -42387-2 0  9999
2 69842  53.1574 293.8903 0000961  62.7055  12.9097 15.95308059  2624
STARLINK-37579          
1 69843U 26154AA  26195.91670139 -.01893166  10163-2 -47019-2 0  9999
2 69843  53.1575 293.8718 0000950  66.4942  17.9004 15.95336116  2622
STARLINK-37584          
1 69844U 26154AB  26195.91670139 -.01913844  10373-2 -47489-2 0  9990
2 69844  53.1577 293.8604 0001028  47.8430  41.9630 15.95355744  2621
STARLINK-37606          
1 69845U 26154AC  26195.91670139 -.01945549  10695-2 -48301-2 0  9999
2 69845  53.1574 293.8468 0001071  51.9957  44.2867 15.95350183  2625
STARLINK-37603          
1 69846U 26154AD  26195.91670139 -.01987118  11122-2 -49453-2 0  9993
2 69846  53.1576 293.8306 0001076  53.4789  50.5190 15.95309997  2620
STARLINK-37595          
1 69847U 26154AE  26195.91670139 -.02007881  11343-2 -49925-2 0  9994
2 69847  53.1574 293.8189 0001052  48.7203  60.6599 15.95329295  2628
QIANFAN-219             
1 69848U 26155A   26195.94332679  .00000139  00000+0  51339-4 0  9997
2 69848  89.0066  60.9753 0030486 224.1138 135.7624 14.26454153  1349
QIANFAN-220             
1 69849U 26155B   26195.59556176 -.02031065  00000+0 -10643+1 0  9994
2 69849  89.0051  61.0153 0035627 220.3335 139.5211 14.18092924  1292
QIANFAN-221             
1 69850U 26155C   26195.94282887  .00000073  00000+0  24103-4 0  9991
2 69850  89.0066  60.9752 0030255 224.6083 135.2676 14.26646370  1345
QIANFAN-222             
1 69851U 26155D   26195.59464717 -.01965196  00000+0 -10143+1 0  9991
2 69851  89.0061  61.0163 0034608 225.6727 134.1625 14.18787335  1295
QIANFAN-223             
1 69852U 26155E   26195.59307786 -.02047514  00000+0 -10275+1 0  9996
2 69852  89.0049  61.0154 0030193 225.2731 134.6001 14.20529596  1297
QIANFAN-224             
1 69853U 26155F   26195.52226217 -.01870987  00000+0 -94633+0 0  9995
2 69853  89.0054  61.0235 0034181 229.2006 130.6218 14.19680058  1288
QIANFAN-225             
1 69854U 26155G   26195.66104376 -.01940958  00000+0 -93627+0 0  9990
2 69854  89.0060  61.0064 0026721 229.1561 130.7315 14.22457897  1301
QIANFAN-226             
1 69855U 26155H   26195.66056751 -.01888899  00000+0 -90615+0 0  9993
2 69855  89.0063  61.0075 0027157 227.2474 132.6432 14.22636125  1307
QIANFAN-227             
1 69856U 26155J   26195.66006345 -.01668555  00000+0 -81608+0 0  9995
2 69856  89.0049  61.0060 0029282 227.9973 131.8725 14.21733202  1307
QIANFAN-228             
1 69857U 26155K   26195.73204560  .00000072  00000+0  23551-4 0  9992
2 69857  89.0070  60.9992 0030346 225.1859 134.6868 14.26683603  1314
QIANFAN-229             
1 69858U 26155L   26195.59172410  .00000257  00000+0  99869-4 0  9995
2 69858  89.0067  61.0152 0030269 225.7567 134.1142 14.26734062  1290
QIANFAN-230             
1 69859U 26155M   26195.66562701 -.01916728  00000+0 -99924+0 0  9999
2 69859  89.0057  61.0078 0034393 220.0661 139.7991 14.18156605  1309
QIANFAN-231             
1 69860U 26155N   26195.94469136  .00000218  00000+0  84734-4 0  9993
2 69860  89.0068  60.9757 0030476 223.5126 136.3663 14.26095513  1349
QIANFAN-232             
1 69861U 26155P   26195.94237757  .00000221  00000+0  85001-4 0  9998
2 69861  89.0065  60.9751 0030274 224.8810 134.9935 14.26735259  1345
QIANFAN-233             
1 69862U 26155Q   26195.80201891  .00000202  00000+0  77193-4 0  9996
2 69862  89.0066  60.9911 0030226 225.1740 134.6997 14.26751064  1323
QIANFAN-234             
1 69863U 26155R   26195.94224482  .00000203  00000+0  77433-4 0  9991
2 69863  89.0068  60.9753 0030210 224.6783 135.1977 14.26757734  1340
QIANFAN-235             
1 69864U 26155S   26195.87207284  .00000072  00000+0  23749-4 0  9990
2 69864  89.0067  60.9833 0030155 224.9343 134.9410 14.26763440  1331
